$$SOE
2459580.500000000, A.D. 2022-Jan-01 00:00:00.0000, 6.794618151416633E+08, 3.048790962335322E+08, -7.810021327682027E+07,
2459587.500000000, A.D. 2022-Jan-08 00:00:00.0000, 6.756466528691821E+08, 3.116931615946672E+08, -8.068109310970606E+07,
2459594.500000000, A.D. 2022-Jan-15 00:00:00.0000, 6.717531864880036E+08, 3.184710073436582E+08, -8.325261313357492E+07,
2459601.500000000, A.D. 2022-Jan-22 00:00:00.0000, 6.677817569754927E+08, 3.252117924918581E+08, -8.581446103174689E+07,
2459608.500000000, A.D. 2022-Jan-29 00:00:00.0000, 6.637327171489354E+08, 3.319146809519418E+08, -8.836632473260355E+07,
2459615.500000000, A.D. 2022-Feb-05 00:00:00.0000, 6.596064294620594E+08, 3.385788410196295E+08, -9.090789231602263E+07,
2459622.500000000, A.D. 2022-Feb-12 00:00:00.0000, 6.554032659725370E+08, 3.452034437879370E+08, -9.343885220532539E+07,
2459629.500000000, A.D. 2022-Feb-19 00:00:00.0000, 6.511236091554222E+08, 3.517876628627098E+08, -9.595889332968575E+07,
2459636.500000000, A.D. 2022-Feb-26 00:00:00.0000, 6.467678522509537E+08, 3.583306746564099E+08, -9.846770519593319E+07,
2459643.500000000, A.D. 2022-Mar-05 00:00:00.0000, 6.423363993059331E+08, 3.648316586432886E+08, -1.009649779349919E+08,
2459650.500000000, A.D. 2022-Mar-12 00:00:00.0000, 6.378296651304661E+08, 3.712897975102878E+08, -1.034504023489415E+08,
2459657.500000000, A.D. 2022-Mar-19 00:00:00.0000, 6.332480752410942E+08, 3.777042772318174E+08, -1.059236699632050E+08,
2459664.500000000, A.D. 2022-Mar-26 00:00:00.0000, 6.285920658127000E+08, 3.840742870626323E+08, -1.083844730866745E+08,
2459671.500000000, A.D. 2022-Apr-02 00:00:00.0000, 6.238620837069837E+08, 3.903990193931647E+08, -1.108325048908090E+08,
2459678.500000000, A.D. 2022-Apr-09 00:00:00.0000, 6.190585868496158E+08, 3.966776694723352E+08, -1.132674595324875E+08,
2459685.500000000, A.D. 2022-Apr-16 00:00:00.0000, 6.141820453131989E+08, 4.029094356519771E+08, -1.156890323000942E+08,
2459692.500000000, A.D. 2022-Apr-23 00:00:00.0000, 6.092329418369253E+08, 4.090935212371281E+08, -1.180969195778935E+08,
2459699.500000000, A.D. 2022-Apr-30 00:00:00.0000, 6.042117699126012E+08, 4.152291356972342E+08, -1.204908186406582E+08,
2459706.500000000, A.D. 2022-May-07 00:00:00.0000, 5.991190325000609E+08, 4.213154932650386E+08, -1.228704277208989E+08,
2459713.500000000, A.D. 2022-May-14 00:00:00.0000, 5.939552427615172E+08, 4.273518119612094E+08, -1.252354462279218E+08,
2459720.500000000, A.D. 2022-May-21 00:00:00.0000, 5.887209247836038E+08, 4.333373138033409E+08, -1.275855748703501E+08,
2459727.500000000, A.D. 2022-May-28 00:00:00.0000, 5.834166138082315E+08, 4.392712252406109E+08, -1.299205157164950E+08,
2459734.500000000, A.D. 2022-Jun-04 00:00:00.0000, 5.780428562494127E+08, 4.451527775013854E+08, -1.322399722435308E+08,
2459741.500000000, A.D. 2022-Jun-11 00:00:00.0000, 5.726002096408123E+08, 4.509812068560743E+08, -1.345436493885258E+08,
2459748.500000000, A.D. 2022-Jun-18 00:00:00.0000, 5.670892425528115E+08, 4.567557548086565E+08, -1.368312536037376E+08,
2459755.500000000, A.D. 2022-Jun-25 00:00:00.0000, 5.615105345086015E+08, 4.624756681838435E+08, -1.391024929214944E+08,
2459762.500000000, A.D. 2022-Jul-02 00:00:00.0000, 5.558646760334239E+08, 4.681401990442634E+08, -1.413570770462191E+08,
2459769.500000000, A.D. 2022-Jul-09 00:00:00.0000, 5.501522692272981E+08, 4.737486046146737E+08, -1.435947174947771E+08,
2459776.500000000, A.D. 2022-Jul-16 00:00:00.0000, 5.443739288059677E+08, 4.793001482958374E+08, -1.458151276913572E+08,
2459783.500000000, A.D. 2022-Jul-23 00:00:00.0000, 5.385302814112558E+08, 4.847941018456024E+08, -1.480180228085039E+08,
2459790.500000000, A.D. 2022-Jul-30 00:00:00.0000, 5.326219632746742E+08, 4.902297453735728E+08, -1.502031196358058E+08,
2459797.500000000, A.D. 2022-Aug-06 00:00:00.0000, 5.266496198333163E+08, 4.956063657977838E+08, -1.523701367532564E+08,
2459804.500000000, A.D. 2022-Aug-13 00:00:00.0000, 5.206139064749565E+08, 5.009232565177282E+08, -1.545187947084541E+08,
2459811.500000000, A.D. 2022-Aug-20 00:00:00.0000, 5.145154888429781E+08, 5.061797178003061E+08, -1.566488160945592E+08,
2459818.500000000, A.D. 2022-Aug-27 00:00:00.0000, 5.083550427693638E+08, 5.113750571521632E+08, -1.587599255944271E+08,
2459825.500000000, A.D. 2022-Sep-03 00:00:00.0000, 5.021332540838070E+08, 5.165085895678491E+08, -1.608518500225365E+08,
2459832.500000000, A.D. 2022-Sep-10 00:00:00.0000, 4.958508183891384E+08, 5.215796376776171E+08, -1.629243183708964E+08,
2459839.500000000, A.D. 2022-Sep-17 00:00:00.0000, 4.895084408325185E+08, 5.265875317930233E+08, -1.649770618617059E+08,
2459846.500000000, A.D. 2022-Sep-24 00:00:00.0000, 4.831068359328541E+08, 5.315316097993518E+08, -1.670098140164698E+08,
2459853.500000000, A.D. 2022-Oct-01 00:00:00.0000, 4.766467277044544E+08, 5.364112168725086E+08, -1.690223107655105E+08,
2459860.500000000, A.D. 2022-Oct-08 00:00:00.0000, 4.701288504843282E+08, 5.412257055423510E+08, -1.710142905927550E+08,
2459867.500000000, A.D. 2022-Oct-15 00:00:00.0000, 4.635539495312827E+08, 5.459744373013179E+08, -1.729854945324830E+08,
2459874.500000000, A.D. 2022-Oct-22 00:00:00.0000, 4.569227792149484E+08, 5.506567840742626E+08, -1.749356659556238E+08,
2459881.500000000, A.D. 2022-Oct-29 00:00:00.0000, 4.502361012925298E+08, 5.552721269562378E+08, -1.768645505869623E+08,
2459888.500000000, A.D. 2022-Nov-05 00:00:00.0000, 4.434946853729028E+08, 5.598198549593693E+08, -1.787718967221723E+08,
2459895.500000000, A.D. 2022-Nov-12 00:00:00.0000, 4.366993096032325E+08, 5.642993650357287E+08, -1.806574553610329E+08,
2459902.500000000, A.D. 2022-Nov-19 00:00:00.0000, 4.298507608585992E+08, 5.687100624219233E+08, -1.825209802688904E+08,
2459909.500000000, A.D. 2022-Nov-26 00:00:00.0000, 4.229498346967909E+08, 5.730513609080272E+08, -1.843622280229709E+08,
2459916.500000000, A.D. 2022-Dec-03 00:00:00.0000, 4.159973352442707E+08, 5.773226830193084E+08, -1.861809580597744E+08,
2459923.500000000, A.D. 2022-Dec-10 00:00:00.0000, 4.089940750588425E+08, 5.815234601294349E+08, -1.879769327262259E+08,
2459930.500000000, A.D. 2022-Dec-17 00:00:00.0000, 4.019408749937479E+08, 5.856531324801809E+08, -1.897499173388945E+08,
2459937.500000000, A.D. 2022-Dec-24 00:00:00.0000, 3.948385641726248E+08, 5.897111490418479E+08, -1.914996802666910E+08,
2459944.500000000, A.D. 2022-Dec-31 00:00:00.0000, 3.876879804330730E+08, 5.936969673219815E+08, -1.932259930610704E+08,
2459951.500000000, A.D. 2023-Jan-07 00:00:00.0000, 3.804899713617393E+08, 5.976100540847564E+08, -1.949286305663544E+08,
2459958.500000000, A.D. 2023-Jan-14 00:00:00.0000, 3.732453939539550E+08, 6.014498874775643E+08, -1.966073707889984E+08,
2459965.500000000, A.D. 2023-Jan-21 00:00:00.0000, 3.659551122529852E+08, 6.052159573921252E+08, -1.982619947257440E+08,
2459972.500000000, A.D. 2023-Jan-28 00:00:00.0000, 3.586199966370313E+08, 6.089077638649658E+08, -1.998922865031608E+08,
2459979.500000000, A.D. 2023-Feb-04 00:00:00.0000, 3.512409245458041E+08, 6.125248165449771E+08, -2.014980335620612E+08,
2459986.500000000, A.D. 2023-Feb-11 00:00:00.0000, 3.438187808515489E+08, 6.160666350342665E+08, -2.030790267377658E+08,
2459993.500000000, A.D. 2023-Feb-18 00:00:00.0000, 3.363544578113642E+08, 6.195327492790926E+08, -2.046350602975101E+08,
2460000.500000000, A.D. 2023-Feb-25 00:00:00.0000, 3.288488548637890E+08, 6.229226998491477E+08, -2.061659319721267E+08,
2460007.500000000, A.D. 2023-Mar-04 00:00:00.0000, 3.213028783720630E+08, 6.262360381240335E+08, -2.076714429895997E+08,
2460014.500000000, A.D. 2023-Mar-11 00:00:00.0000, 3.137174413428531E+08, 6.294723263874859E+08, -2.091513981127749E+08,
2460021.500000000, A.D. 2023-Mar-18 00:00:00.0000, 3.060934631676263E+08, 6.326311377799852E+08, -2.106056056892636E+08,
2460028.500000000, A.D. 2023-Mar-25 00:00:00.0000, 2.984318695900808E+08, 6.357120560627806E+08, -2.120338777357586E+08,
2460035.500000000, A.D. 2023-Apr-01 00:00:00.0000, 2.907335933243342E+08, 6.387146755870805E+08, -2.134360300633708E+08,
2460042.500000000, A.D. 2023-Apr-08 00:00:00.0000, 2.829995747087871E+08, 6.416386026936461E+08, -2.148118822872989E+08,
2460049.500000000, A.D. 2023-Apr-15 00:00:00.0000, 2.752307600588120E+08, 6.444834574366051E+08, -2.161612575966101E+08,
2460056.500000000, A.D. 2023-Apr-22 00:00:00.0000, 2.674280995274167E+08, 6.472488725797718E+08, -2.174839826993551E+08,
2460063.500000000, A.D. 2023-Apr-29 00:00:00.0000, 2.595925472092550E+08, 6.499344921187655E+08, -2.187798880099767E+08,
2460070.500000000, A.D. 2023-May-06 00:00:00.0000, 2.517250617281502E+08, 6.525399711100595E+08, -2.200488077720825E+08,
2460077.500000000, A.D. 2023-May-13 00:00:00.0000, 2.438266063314808E+08, 6.550649759132810E+08, -2.212905801000077E+08,
2460084.500000000, A.D. 2023-May-20 00:00:00.0000, 2.358981487256202E+08, 6.575091843556458E+08, -2.225050470008759E+08,
2460091.500000000, A.D. 2023-May-27 00:00:00.0000, 2.279406608459784E+08, 6.598722857890960E+08, -2.236920543974944E+08,
2460098.500000000, A.D. 2023-Jun-03 00:00:00.0000, 2.199551186192860E+08, 6.621539810661458E+08, -2.248514521554735E+08,
2460105.500000000, A.D. 2023-Jun-10 00:00:00.0000, 2.119425017419510E+08, 6.643539824206769E+08, -2.259830941181207E+08,
2460112.500000000, A.D. 2023-Jun-17 00:00:00.0000, 2.039037935635633E+08, 6.664720131936119E+08, -2.270868381624350E+08,
2460119.500000000, A.D. 2023-Jun-24 00:00:00.0000, 1.958399813955786E+08, 6.685078074591523E+08, -2.281625463012650E+08,
2460126.500000000, A.D. 2023-Jul-01 00:00:00.0000, 1.877520574984484E+08, 6.704611103797975E+08, -2.292100847874429E+08,
2460133.500000000, A.D. 2023-Jul-08 00:00:00.0000, 1.796410190734254E+08, 6.723316801121302E+08, -2.302293239993258E+08,
2460140.500000000, A.D. 2023-Jul-15 00:00:00.0000, 1.715078659822575E+08, 6.741192884333253E+08, -2.312201382217895E+08,
2460147.500000000, A.D. 2023-Jul-22 00:00:00.0000, 1.633535997159543E+08, 6.758237190541470E+08, -2.321824057302842E+08,
$$EOE